{"fetched_at":"2026-03-30T20:46:33Z","count":15425,"tles":[{"name":"STARLINK-4634","line1":"1 53967U 22125D   26087.58161340  .00000592  00000+0  55298-4 0  9991","line2":"2 53967  53.2163 139.3473 0001324  92.7690 267.3453 15.08839585192177","category":"Starlink"}]}